NORAD_CAT_ID,OBJECT_NAME,OBJECT_TYPE,EPOCH,MEAN_MOTION,ECCENTRICITY,INCLINATION,RA_OF_ASC_NODE,ARG_OF_PERICENTER,MEAN_ANOMALY,BSTAR,MEAN_MOTION_DOT,MEAN_MOTION_DDOT,TLE_LINE0,TLE_LINE1,TLE_LINE2,SEMIMAJOR_AXIS,PERIOD,APOGEE,PERIGEE,DECAYED
56466.0,STARLINK-6053,PAYLOAD,2023-09-03 12:02:39,14.98256864,0.0003015,69.9986,299.396,273.8209,86.2605,0.0013485,0.00016003,0.0,0 STARLINK-6053,1 56466U 23064U   23246.50184985  .00016003  00000-0  13485-2 0  9992,2 56466  69.9986 299.3960 0003015 273.8209  86.2605 14.98256864 18070,6950.419,96.112,574.38,570.189,0.0
56466.0,STARLINK-6053,PAYLOAD,2023-09-04 02:27:51,14.98325365,0.0003354,69.9986,297.8809,271.9738,88.1037,-5.2062e-05,-7.14e-06,0.0,0 STARLINK-6053,1 56466U 23064U   23247.10268026 -.00000714  00000-0 -52062-4 0  9998,2 56466  69.9986 297.8809 0003354 271.9738  88.1037 14.98325365 18160,6950.207,96.107,574.403,569.741,0.0
56466.0,STARLINK-6053,PAYLOAD,2023-09-04 10:28:32,14.98323749,0.0003434,69.9984,297.0381,273.6035,86.4731,-8.5892e-05,-1.118e-05,0.0,0 STARLINK-6053,1 56466U 23064U   23247.43648327 -.00001118  00000-0 -85892-4 0  9996,2 56466  69.9984 297.0381 0003434 273.6035  86.4731 14.98323749 17854,6950.212,96.107,574.464,569.691,0.0
56466.0,STARLINK-6053,PAYLOAD,2023-09-05 13:42:48,14.9832819,0.0003398,69.9991,294.1775,271.1772,88.8998,1.5857e-05,9.6e-07,0.0,0 STARLINK-6053,1 56466U 23064U   23248.57140000  .00000096  00000-0  15857-4 0  9993,2 56466  69.9991 294.1775 0003398 271.1772  88.8998 14.98328190 18023,6950.198,96.107,574.425,569.702,0.0
56466.0,STARLINK-6053,PAYLOAD,2023-09-06 02:31:53,14.98326658,0.0003529,69.9989,292.831,270.258,89.8174,9.4144e-05,1.03e-05,0.0,0 STARLINK-6053,1 56466U 23064U   23249.10547878  .00001030  00000-0  94144-4 0  9992,2 56466  69.9989 292.8310 0003529 270.2580  89.8174 14.98326658 18106,6950.203,96.107,574.521,569.615,0.0
56466.0,STARLINK-6053,PAYLOAD,2023-09-06 20:09:21,14.98331011,0.0003522,69.9991,290.9792,270.5859,89.4897,8.8011e-05,9.57e-06,0.0,0 STARLINK-6053,1 56466U 23064U   23249.83983648  .00000957  00000-0  88011-4 0  9994,2 56466  69.9991 290.9792 0003522 270.5859  89.4897 14.98331011 18216,6950.19,96.107,574.503,569.607,0.0
56466.0,STARLINK-6053,PAYLOAD,2023-09-07 02:33:54,14.98329686,0.0003385,69.9992,290.3054,271.01,89.0671,1.8303e-05,1.25e-06,0.0,0 STARLINK-6053,1 56466U 23064U   23250.10687939  .00000125  00000-0  18303-4 0  9994,2 56466  69.9992 290.3054 0003385 271.0100  89.0671 14.98329686 18619,6950.194,96.107,574.412,569.706,0.0
56466.0,STARLINK-6053,PAYLOAD,2023-09-07 08:58:27,14.98320964,0.0003489,69.9991,289.6325,276.0652,84.0109,2.5508e-05,2.11e-06,0.0,0 STARLINK-6053,1 56466U 23064U   23250.37392622  .00000211  00000-0  25508-4 0  9996,2 56466  69.9991 289.6325 0003489 276.0652  84.0109 14.98320964 18657,6950.221,96.108,574.511,569.661,0.0
56466.0,STARLINK-6053,PAYLOAD,2023-09-07 12:10:42,14.98339094,0.000362,69.9991,289.2955,282.4137,77.6617,8.6566e-05,9.4e-06,0.0,0 STARLINK-6053,1 56466U 23064U   23250.50743331  .00000940  00000-0  86566-4 0  9998,2 56466  69.9991 289.2955 0003620 282.4137  77.6617 14.98339094 18317,6950.165,96.106,574.546,569.514,0.0
56466.0,STARLINK-6053,PAYLOAD,2023-09-08 10:36:38,14.98288899,0.0002901,70.0016,286.9417,263.9874,96.0954,-0.00049733,-6.016e-05,0.0,0 STARLINK-6053,1 56466U 23064U   23251.44211582 -.00006016  00000-0 -49733-3 0  9996,2 56466  70.0016 286.9417 0002901 263.9874  96.0954 14.98288899 18818,6950.32,96.11,574.201,570.169,0.0
56466.0,STARLINK-6053,PAYLOAD,2023-09-08 12:12:46,14.98292657,0.0003211,70.0011,286.7728,272.7004,87.3787,-0.00045206,-5.478e-05,0.0,0 STARLINK-6053,1 56466U 23064U   23251.50887226 -.00005478  00000-0 -45206-3 0  9999,2 56466  70.0011 286.7728 0003211 272.7004  87.3787 14.98292657 18469,6950.308,96.109,574.405,569.942,0.0
56466.0,STARLINK-6053,PAYLOAD,2023-09-09 02:37:56,14.98327922,0.0003572,70.0001,285.2567,270.1139,89.9611,5.9273e-05,6.14e-06,0.0,0 STARLINK-6053,1 56466U 23064U   23252.10967702  .00000614  00000-0  59273-4 0  9999,2 56466  70.0001 285.2567 0003572 270.1139  89.9611 14.98327922 18912,6950.199,96.107,574.547,569.582,0.0
56466.0,STARLINK-6053,PAYLOAD,2023-09-09 12:14:44,14.98322996,0.0002978,70.0008,284.2471,265.1221,94.9598,6.3702e-05,6.67e-06,0.0,0 STARLINK-6053,1 56466U 23064U   23252.51024017  .00000667  00000-0  63702-4 0  9997,2 56466  70.0008 284.2471 0002978 265.1221  94.9598 14.98322996 18610,6950.215,96.107,574.149,570.01,0.0
56466.0,STARLINK-6053,PAYLOAD,2023-09-10 10:40:37,14.98327236,0.0003037,70.0004,281.891,256.5333,103.5488,-4.9649e-07,-9.9e-07,0.0,0 STARLINK-6053,1 56466U 23064U   23253.44487796 -.00000099  00000-0 -49649-6 0  9994,2 56466  70.0004 281.8910 0003037 256.5333 103.5488 14.98327236 19115,6950.201,96.107,574.177,569.956,0.0
56466.0,STARLINK-6053,PAYLOAD,2023-09-10 12:16:45,14.9833222,0.0003161,69.9995,281.7219,258.7798,101.3005,-4.6875e-05,-6.52e-06,0.0,0 STARLINK-6053,1 56466U 23064U   23253.51163585 -.00000652  00000-0 -46875-4 0  9990,2 56466  69.9995 281.7219 0003161 258.7798 101.3005 14.98332220 18769,6950.186,96.107,574.248,569.854,0.0
56466.0,STARLINK-6053,PAYLOAD,2023-09-11 10:42:38,14.98331005,0.0003167,69.9992,279.3645,266.9486,93.131,-5.1609e-05,-7.09e-06,0.0,0 STARLINK-6053,1 56466U 23064U   23254.44627674 -.00000709  00000-0 -51609-4 0  9991,2 56466  69.9992 279.3645 0003167 266.9486  93.1310 14.98331005 19266,6950.19,96.107,574.256,569.854,0.0
56466.0,STARLINK-6053,PAYLOAD,2023-09-11 12:18:46,14.98328978,0.0003388,69.9993,279.1961,269.6035,90.4736,-9.0357e-06,-2.01e-06,0.0,0 STARLINK-6053,1 56466U 23064U   23254.51303685 -.00000201  00000-0 -90357-5 0  9993,2 56466  69.9993 279.1961 0003388 269.6035  90.4736 14.98328978 18919,6950.196,96.107,574.416,569.706,0.0
56466.0,STARLINK-6053,PAYLOAD,2023-09-12 10:44:39,14.9832803,0.0003191,69.9996,276.839,267.541,92.5383,2.1332e-05,1.61e-06,0.0,0 STARLINK-6053,1 56466U 23064U   23255.44767623  .00000161  00000-0  21332-4 0  9991,2 56466  69.9996 276.8390 0003191 267.5410  92.5383 14.98328030 19414,6950.199,96.107,574.282,569.846,0.0
56466.0,STARLINK-6053,PAYLOAD,2023-09-13 09:10:31,14.98335196,0.0003417,69.9999,274.483,264.619,95.4579,2.7516e-06,-6e-07,0.0,0 STARLINK-6053,1 56466U 23064U   23256.38231003 -.00000060  00000-0  27516-5 0  9993,2 56466  69.9999 274.4830 0003417 264.6190  95.4579 14.98335196 19559,6950.177,96.107,574.417,569.667,0.0
56466.0,STARLINK-6053,PAYLOAD,2023-09-13 10:46:39,14.98332437,0.0003279,69.9996,274.315,261.0253,99.0535,5.5907e-05,5.74e-06,0.0,0 STARLINK-6053,1 56466U 23064U   23256.44907031  .00000574  00000-0  55907-4 0  9994,2 56466  69.9996 274.3150 0003279 261.0253  99.0535 14.98332437 19206,6950.185,96.107,574.329,569.771,0.0
56466.0,STARLINK-6053,PAYLOAD,2023-09-13 18:47:20,14.98327068,0.0002859,70.0011,273.4721,285.0024,75.0818,-1.1459e-05,-2.3e-06,0.0,0 STARLINK-6053,1 56466U 23064U   23256.78287785 -.00000230  00000-0 -11459-4 0  9993,2 56466  70.0011 273.4721 0002859 285.0024  75.0818 14.98327068 19253,6950.202,96.107,574.054,570.08,0.0
56466.0,STARLINK-6053,PAYLOAD,2023-09-14 02:48:00,14.9832495,0.0003409,70.001,272.6302,271.0874,88.9894,-3.1203e-05,-4.65e-06,0.0,0 STARLINK-6053,1 56466U 23064U   23257.11667771 -.00000465  00000-0 -31203-4 0  9997,2 56466  70.0010 272.6302 0003409 271.0874  88.9894 14.98324950 19667,6950.209,96.107,574.443,569.704,0.0
56466.0,STARLINK-6053,PAYLOAD,2023-09-14 10:48:41,14.98318968,0.0003137,70.0001,271.7899,262.1474,97.9329,-3.5752e-05,-5.19e-06,0.0,0 STARLINK-6053,1 56466U 23064U   23257.45048285 -.00000519  00000-0 -35752-4 0  9990,2 56466  70.0001 271.7899 0003137 262.1474  97.9329 14.98318968 19354,6950.227,96.108,574.272,569.912,0.0
56466.0,STARLINK-6053,PAYLOAD,2023-09-14 18:49:22,14.98321443,0.0003217,70.0,270.948,270.5272,89.5518,-7.3131e-05,-9.65e-06,0.0,0 STARLINK-6053,1 56466U 23064U   23257.78428448 -.00000965  00000-0 -73131-4 0  9997,2 56466  70.0000 270.9480 0003217 270.5272  89.5518 14.98321443 19403,6950.219,96.108,574.32,569.848,0.0
56466.0,STARLINK-6053,PAYLOAD,2023-09-15 02:50:02,14.98325449,0.0003393,69.9995,270.1055,267.2142,92.8629,-3.2079e-05,-4.76e-06,0.0,0 STARLINK-6053,1 56466U 23064U   23258.11807982 -.00000476  00000-0 -32079-4 0  9992,2 56466  69.9995 270.1055 0003393 267.2142  92.8629 14.98325449 19812,6950.207,96.107,574.43,569.714,0.0
56466.0,STARLINK-6053,PAYLOAD,2023-09-15 10:50:42,14.98326322,0.000333,69.9995,269.2646,265.7659,94.3119,-1.8105e-05,-3.09e-06,0.0,0 STARLINK-6053,1 56466U 23064U   23258.45187982 -.00000309  00000-0 -18105-4 0  9999,2 56466  69.9995 269.2646 0003330 265.7659  94.3119 14.98326322 19502,6950.204,96.107,574.384,569.755,0.0
56466.0,STARLINK-6053,PAYLOAD,2023-09-16 02:52:02,14.98325659,0.0003568,69.9994,267.581,270.4437,89.6313,8.5323e-05,9.25e-06,0.0,0 STARLINK-6053,1 56466U 23064U   23259.11947833  .00000925  00000-0  85323-4 0  9990,2 56466  69.9994 267.5810 0003568 270.4437  89.6313 14.98325659 19960,6950.206,96.107,574.551,569.591,0.0
56466.0,STARLINK-6053,PAYLOAD,2023-09-16 10:52:43,14.98326217,0.0003232,70.0002,266.7403,263.3248,96.7543,8.5174e-05,9.23e-06,0.0,0 STARLINK-6053,1 56466U 23064U   23259.45327903  .00000923  00000-0  85174-4 0  9999,2 56466  70.0002 266.7403 0003232 263.3248  96.7543 14.98326217 19652,6950.205,96.107,574.316,569.823,0.0
56466.0,STARLINK-6053,PAYLOAD,2023-09-17 02:54:03,14.98331969,0.000363,69.9999,265.0566,273.7553,86.3191,8.1493e-05,8.79e-06,0.0,0 STARLINK-6053,1 56466U 23064U   23260.12087525  .00000879  00000-0  81493-4 0  9998,2 56466  69.9999 265.0566 0003630 273.7553  86.3191 14.98331969 20119,6950.187,96.107,574.575,569.529,0.0
56466.0,STARLINK-6053,PAYLOAD,2023-09-17 09:18:35,14.98340011,0.0003239,70.0002,264.3836,265.7058,94.3731,-1.7604e-05,-3.03e-06,0.0,0 STARLINK-6053,1 56466U 23064U   23260.38791182 -.00000303  00000-0 -17604-4 0  9994,2 56466  70.0002 264.3836 0003239 265.7058  94.3731 14.98340011 19794,6950.162,96.106,574.278,569.776,0.0
